[
  {
    "OBJECT_NAME": "STARLINK-1032",
    "OBJECT_ID": "2019-074AA",
    "EPOCH": "2023-10-31T17:14:11.192640",
    "MEAN_MOTION": 15.0639897,
    "ECCENTRICITY": 0.0001374,
    "INCLINATION": 53.0543,
    "RA_OF_ASC_NODE": 107.1804,
    "ARG_OF_PERICENTER": 86.574,
    "MEAN_ANOMALY": 273.5406,
    "EPHEMERIS_TYPE": 0,
    "CLASSIFICATION_TYPE": "U",
    "NORAD_CAT_ID": 44737,
    "ELEMENT_SET_NO": 999,
    "REV_AT_EPOCH": 21902,
    "BSTAR": 0.00010352,
    "MEAN_MOTION_DOT": 1.261e-5,
    "MEAN_MOTION_DDOT": 0
  },
  {
    "OBJECT_NAME": "STARLINK-1035",
    "OBJECT_ID": "2019-074AD",
    "EPOCH": "2023-10-31T10:46:32.510496",
    "MEAN_MOTION": 15.06465272,
    "ECCENTRICITY": 0.0001317,
    "INCLINATION": 53.0529,
    "RA_OF_ASC_NODE": 108.3883,
    "ARG_OF_PERICENTER": 92.0072,
    "MEAN_ANOMALY": 268.1068,
    "EPHEMERIS_TYPE": 0,
    "CLASSIFICATION_TYPE": "U",
    "NORAD_CAT_ID": 44740,
    "ELEMENT_SET_NO": 999,
    "REV_AT_EPOCH": 21881,
    "BSTAR": 0.00040093,
    "MEAN_MOTION_DOT": 5.706e-5,
    "MEAN_MOTION_DDOT": 0
  },
  {
    "OBJECT_NAME": "STARLINK-1036",
    "OBJECT_ID": "2019-074AE",
    "EPOCH": "2023-10-31T11:02:38.903136",
    "MEAN_MOTION": 15.06406458,
    "ECCENTRICITY": 0.0001377,
    "INCLINATION": 53.0535,
    "RA_OF_ASC_NODE": 108.3369,
    "ARG_OF_PERICENTER": 97.917,
    "MEAN_ANOMALY": 262.1975,
    "EPHEMERIS_TYPE": 0,
    "CLASSIFICATION_TYPE": "U",
    "NORAD_CAT_ID": 44741,
    "ELEMENT_SET_NO": 999,
    "REV_AT_EPOCH": 21881,
    "BSTAR": 0.00045943,
    "MEAN_MOTION_DOT": 6.569e-5,
    "MEAN_MOTION_DDOT": 0
  },
  {
    "OBJECT_NAME": "STARLINK-1038",
    "OBJECT_ID": "2019-074AG",
    "EPOCH": "2023-10-31T12:14:18.974976",
    "MEAN_MOTION": 15.06394956,
    "ECCENTRICITY": 0.000117,
    "INCLINATION": 53.0518,
    "RA_OF_ASC_NODE": 128.1147,
    "ARG_OF_PERICENTER": 95.8838,
    "MEAN_ANOMALY": 264.2284,
    "EPHEMERIS_TYPE": 0,
    "CLASSIFICATION_TYPE": "U",
    "NORAD_CAT_ID": 44743,
    "ELEMENT_SET_NO": 999,
    "REV_AT_EPOCH": 21863,
    "BSTAR": 0.00081708,
    "MEAN_MOTION_DOT": 0.00011908,
    "MEAN_MOTION_DDOT": 0
  },
  {
    "OBJECT_NAME": "STARLINK-1039",
    "OBJECT_ID": "2019-074AH",
    "EPOCH": "2023-10-31T18:52:23.382336",
    "MEAN_MOTION": 15.06414162,
    "ECCENTRICITY": 0.0001365,
    "INCLINATION": 53.052,
    "RA_OF_ASC_NODE": 126.8736,
    "ARG_OF_PERICENTER": 91.1056,
    "MEAN_ANOMALY": 269.0089,
    "EPHEMERIS_TYPE": 0,
    "CLASSIFICATION_TYPE": "U",
    "NORAD_CAT_ID": 44744,
    "ELEMENT_SET_NO": 999,
    "REV_AT_EPOCH": 21875,
    "BSTAR": 0.00034536,
    "MEAN_MOTION_DOT": 4.868e-5,
    "MEAN_MOTION_DDOT": 0
  },
  {
    "OBJECT_NAME": "STARLINK-1041",
    "OBJECT_ID": "2019-074AK",
    "EPOCH": "2023-10-31T18:31:09.048000",
    "MEAN_MOTION": 15.06405214,
    "ECCENTRICITY": 0.0002272,
    "INCLINATION": 53.0528,
    "RA_OF_ASC_NODE": 126.9411,
    "ARG_OF_PERICENTER": 93.1416,
    "MEAN_ANOMALY": 266.9833,
    "EPHEMERIS_TYPE": 0,
    "CLASSIFICATION_TYPE": "U",
    "NORAD_CAT_ID": 44746,
    "ELEMENT_SET_NO": 999,
    "REV_AT_EPOCH": 21875,
    "BSTAR": 0.00026816,
    "MEAN_MOTION_DOT": 3.715e-5,
    "MEAN_MOTION_DDOT": 0
  },
  {
    "OBJECT_NAME": "STARLINK-1042",
    "OBJECT_ID": "2019-074AL",
    "EPOCH": "2023-10-31T19:13:36.414624",
    "MEAN_MOTION": 15.06399938,
    "ECCENTRICITY": 0.0001461,
    "INCLINATION": 53.0528,
    "RA_OF_ASC_NODE": 126.8089,
    "ARG_OF_PERICENTER": 94.2872,
    "MEAN_ANOMALY": 265.8284,
    "EPHEMERIS_TYPE": 0,
    "CLASSIFICATION_TYPE": "U",
    "NORAD_CAT_ID": 44747,
    "ELEMENT_SET_NO": 999,
    "REV_AT_EPOCH": 21876,
    "BSTAR": 9.6096e-5,
    "MEAN_MOTION_DOT": 1.15e-5,
    "MEAN_MOTION_DDOT": 0
  },
  {
    "OBJECT_NAME": "STARLINK-1043",
    "OBJECT_ID": "2019-074AM",
    "EPOCH": "2023-10-31T11:58:23.562912",
    "MEAN_MOTION": 15.06395136,
    "ECCENTRICITY": 0.0001401,
    "INCLINATION": 53.0527,
    "RA_OF_ASC_NODE": 128.1667,
    "ARG_OF_PERICENTER": 100.2524,
    "MEAN_ANOMALY": 259.8623,
    "EPHEMERIS_TYPE": 0,
    "CLASSIFICATION_TYPE": "U",
    "NORAD_CAT_ID": 44748,
    "ELEMENT_SET_NO": 999,
    "REV_AT_EPOCH": 21854,
    "BSTAR": 0.00054739,
    "MEAN_MOTION_DOT": 7.88e-5,
    "MEAN_MOTION_DDOT": 0
  },
  {
    "OBJECT_NAME": "STARLINK-1046",
    "OBJECT_ID": "2019-074AQ",
    "EPOCH": "2023-10-31T12:19:37.905888",
    "MEAN_MOTION": 15.06388477,
    "ECCENTRICITY": 0.0001637,
    "INCLINATION": 53.0527,
    "RA_OF_ASC_NODE": 128.0995,
    "ARG_OF_PERICENTER": 93.9646,
    "MEAN_ANOMALY": 266.153,
    "EPHEMERIS_TYPE": 0,
    "CLASSIFICATION_TYPE": "U",
    "NORAD_CAT_ID": 44751,
    "ELEMENT_SET_NO": 999,
    "REV_AT_EPOCH": 21854,
    "BSTAR": 0.00020236,
    "MEAN_MOTION_DOT": 2.733e-5,
    "MEAN_MOTION_DDOT": 0
  },
  {
    "OBJECT_NAME": "STARLINK-1047",
    "OBJECT_ID": "2019-074AR",
    "EPOCH": "2023-10-31T17:35:25.073376",
    "MEAN_MOTION": 15.06399947,
    "ECCENTRICITY": 0.0001169,
    "INCLINATION": 53.0545,
    "RA_OF_ASC_NODE": 107.1147,
    "ARG_OF_PERICENTER": 90.3935,
    "MEAN_ANOMALY": 269.7188,
    "EPHEMERIS_TYPE": 0,
    "CLASSIFICATION_TYPE": "U",
    "NORAD_CAT_ID": 44752,
    "ELEMENT_SET_NO": 999,
    "REV_AT_EPOCH": 21902,
    "BSTAR": 0.00011806,
    "MEAN_MOTION_DOT": 1.478e-5,
    "MEAN_MOTION_DDOT": 0
  },
  {
    "OBJECT_NAME": "STARLINK-1048",
    "OBJECT_ID": "2019-074AS",
    "EPOCH": "2023-10-31T16:07:49.866816",
    "MEAN_MOTION": 15.0641492,
    "ECCENTRICITY": 7.49e-5,
    "INCLINATION": 53.0543,
    "RA_OF_ASC_NODE": 87.3865,
    "ARG_OF_PERICENTER": 66.3851,
    "MEAN_ANOMALY": 293.7217,
    "EPHEMERIS_TYPE": 0,
    "CLASSIFICATION_TYPE": "U",
    "NORAD_CAT_ID": 44753,
    "ELEMENT_SET_NO": 999,
    "REV_AT_EPOCH": 21929,
    "BSTAR": -0.00013586,
    "MEAN_MOTION_DOT": -2.305e-5,
    "MEAN_MOTION_DDOT": 0
  },
  {
    "OBJECT_NAME": "STARLINK-1052",
    "OBJECT_ID": "2019-074AW",
    "EPOCH": "2023-10-31T11:13:26.725152",
    "MEAN_MOTION": 15.10063212,
    "ECCENTRICITY": 0.0001642,
    "INCLINATION": 53.0543,
    "RA_OF_ASC_NODE": 107.4987,
    "ARG_OF_PERICENTER": 183.8434,
    "MEAN_ANOMALY": 176.2544,
    "EPHEMERIS_TYPE": 0,
    "CLASSIFICATION_TYPE": "U",
    "NORAD_CAT_ID": 44757,
    "ELEMENT_SET_NO": 999,
    "REV_AT_EPOCH": 21882,
    "BSTAR": 0.00061111,
    "MEAN_MOTION_DOT": 9.782e-5,
    "MEAN_MOTION_DDOT": 0
  },
  {
    "OBJECT_NAME": "STARLINK-1053",
    "OBJECT_ID": "2019-074AX",
    "EPOCH": "2023-10-31T05:30:56.533536",
    "MEAN_MOTION": 15.06410344,
    "ECCENTRICITY": 0.0001857,
    "INCLINATION": 53.0528,
    "RA_OF_ASC_NODE": 129.4608,
    "ARG_OF_PERICENTER": 81.9461,
    "MEAN_ANOMALY": 278.1739,
    "EPHEMERIS_TYPE": 0,
    "CLASSIFICATION_TYPE": "U",
    "NORAD_CAT_ID": 44758,
    "ELEMENT_SET_NO": 999,
    "REV_AT_EPOCH": 21850,
    "BSTAR": 0.00049782,
    "MEAN_MOTION_DOT": 7.143e-5,
    "MEAN_MOTION_DDOT": 0
  },
  {
    "OBJECT_NAME": "STARLINK-1054",
    "OBJECT_ID": "2019-074AY",
    "EPOCH": "2023-10-31T13:02:05.326944",
    "MEAN_MOTION": 15.06414217,
    "ECCENTRICITY": 0.00015,
    "INCLINATION": 53.0515,
    "RA_OF_ASC_NODE": 127.9663,
    "ARG_OF_PERICENTER": 91.2538,
    "MEAN_ANOMALY": 268.8623,
    "EPHEMERIS_TYPE": 0,
    "CLASSIFICATION_TYPE": "U",
    "NORAD_CAT_ID": 44759,
    "ELEMENT_SET_NO": 999,
    "REV_AT_EPOCH": 21619,
    "BSTAR": 0.00048236,
    "MEAN_MOTION_DOT": 6.913e-5,
    "MEAN_MOTION_DDOT": 0
  },
  {
    "OBJECT_NAME": "STARLINK-1055",
    "OBJECT_ID": "2019-074AZ",
    "EPOCH": "2023-10-30T20:24:06.118848",
    "MEAN_MOTION": 15.2158024,
    "ECCENTRICITY": 0.0001488,
    "INCLINATION": 53.0477,
    "RA_OF_ASC_NODE": 112.0816,
    "ARG_OF_PERICENTER": 170.3424,
    "MEAN_ANOMALY": 189.7601,
    "EPHEMERIS_TYPE": 0,
    "CLASSIFICATION_TYPE": "U",
    "NORAD_CAT_ID": 44760,
    "ELEMENT_SET_NO": 999,
    "REV_AT_EPOCH": 21872,
    "BSTAR": 0.00048725,
    "MEAN_MOTION_DOT": 0.00010818,
    "MEAN_MOTION_DDOT": 0
  },
  {
    "OBJECT_NAME": "STARLINK-1056",
    "OBJECT_ID": "2019-074BA",
    "EPOCH": "2023-10-31T19:18:55.265184",
    "MEAN_MOTION": 15.06403919,
    "ECCENTRICITY": 0.0001899,
    "INCLINATION": 53.0527,
    "RA_OF_ASC_NODE": 126.7931,
    "ARG_OF_PERICENTER": 88.7857,
    "MEAN_ANOMALY": 271.335,
    "EPHEMERIS_TYPE": 0,
    "CLASSIFICATION_TYPE": "U",
    "NORAD_CAT_ID": 44761,
    "ELEMENT_SET_NO": 999,
    "REV_AT_EPOCH": 21876,
    "BSTAR": 0.0001671,
    "MEAN_MOTION_DOT": 2.208e-5,
    "MEAN_MOTION_DDOT": 0
  },
  {
    "OBJECT_NAME": "STARLINK-1057",
    "OBJECT_ID": "2019-074BB",
    "EPOCH": "2023-10-30T17:52:56.767872",
    "MEAN_MOTION": 15.06392693,
    "ECCENTRICITY": 0.0001419,
    "INCLINATION": 53.0519,
    "RA_OF_ASC_NODE": 111.5474,
    "ARG_OF_PERICENTER": 91.8994,
    "MEAN_ANOMALY": 268.2157,
    "EPHEMERIS_TYPE": 0,
    "CLASSIFICATION_TYPE": "U",
    "NORAD_CAT_ID": 44762,
    "ELEMENT_SET_NO": 999,
    "REV_AT_EPOCH": 21870,
    "BSTAR": 0.00016292,
    "MEAN_MOTION_DOT": 2.146e-5,
    "MEAN_MOTION_DDOT": 0
  },
  {
    "OBJECT_NAME": "STARLINK-1058",
    "OBJECT_ID": "2019-074BC",
    "EPOCH": "2023-10-31T22:00:01.999584",
    "MEAN_MOTION": 15.06391054,
    "ECCENTRICITY": 0.0001349,
    "INCLINATION": 53.0525,
    "RA_OF_ASC_NODE": 126.6384,
    "ARG_OF_PERICENTER": 82.8993,
    "MEAN_ANOMALY": 224.0547,
    "EPHEMERIS_TYPE": 0,
    "CLASSIFICATION_TYPE": "U",
    "NORAD_CAT_ID": 44763,
    "ELEMENT_SET_NO": 999,
    "REV_AT_EPOCH": 21877,
    "BSTAR": -0.0001868,
    "MEAN_MOTION_DOT": -3.062e-5,
    "MEAN_MOTION_DDOT": 0
  }
]
